CCSDS_OMM_VERS = 2.0
CREATION_DATE  = 
ORIGINATOR     = 

OBJECT_NAME    = UNKNOWN
OBJECT_ID      = 
CENTER_NAME    = EARTH
REF_FRAME      = TEME
TIME_SYSTEM    = UTC
MEAN_ELEMENT_THEORY = SGP/SGP4

EPOCH          = 2026-01-19T11:17:53.607840
MEAN_MOTION    = 13.83540829
ECCENTRICITY   = .056419
INCLINATION    = 65.7728
RA_OF_ASC_NODE = 294.0545
ARG_OF_PERICENTER = 289.6626
MEAN_ANOMALY   = 64.4412

EPHEMERIS_TYPE = 0
CLASSIFICATION_TYPE = U
NORAD_CAT_ID   = 81052
ELEMENT_SET_NO = 999
REV_AT_EPOCH   = 60553
BSTAR          = .18055E-2
MEAN_MOTION_DOT = .6902E-4
MEAN_MOTION_DDOT = 0

CCSDS_OMM_VERS = 2.0
CREATION_DATE  = 
ORIGINATOR     = 

OBJECT_NAME    = UNKNOWN
OBJECT_ID      = 
CENTER_NAME    = EARTH
REF_FRAME      = TEME
TIME_SYSTEM    = UTC
MEAN_ELEMENT_THEORY = SGP/SGP4

EPOCH          = 2026-01-21T11:19:34.202496
MEAN_MOTION    = 13.60824833
ECCENTRICITY   = .0066851
INCLINATION    = 100.3844
RA_OF_ASC_NODE = 289.9982
ARG_OF_PERICENTER = 308.1511
MEAN_ANOMALY   = 51.3615

EPHEMERIS_TYPE = 0
CLASSIFICATION_TYPE = U
NORAD_CAT_ID   = 81069
ELEMENT_SET_NO = 999
REV_AT_EPOCH   = 52133
BSTAR          = .81448E-2
MEAN_MOTION_DOT = .6205E-4
MEAN_MOTION_DDOT = 0

CCSDS_OMM_VERS = 2.0
CREATION_DATE  = 
ORIGINATOR     = 

OBJECT_NAME    = UNKNOWN
OBJECT_ID      = 
CENTER_NAME    = EARTH
REF_FRAME      = TEME
TIME_SYSTEM    = UTC
MEAN_ELEMENT_THEORY = SGP/SGP4

EPOCH          = 2026-01-20T21:01:12.711648
MEAN_MOTION    = 7.56743422
ECCENTRICITY   = .3853866
INCLINATION    = 62.8989
RA_OF_ASC_NODE = 342.5023
ARG_OF_PERICENTER = 358.7353
MEAN_ANOMALY   = 0.5519

EPHEMERIS_TYPE = 0
CLASSIFICATION_TYPE = U
NORAD_CAT_ID   = 81111
ELEMENT_SET_NO = 999
REV_AT_EPOCH   = 27490
BSTAR          = .67318E-2
MEAN_MOTION_DOT = .31963E-3
MEAN_MOTION_DDOT = 0

CCSDS_OMM_VERS = 2.0
CREATION_DATE  = 
ORIGINATOR     = 

OBJECT_NAME    = UNKNOWN
OBJECT_ID      = 
CENTER_NAME    = EARTH
REF_FRAME      = TEME
TIME_SYSTEM    = UTC
MEAN_ELEMENT_THEORY = SGP/SGP4

EPOCH          = 2026-01-18T11:18:49.061952
MEAN_MOTION    = 13.81680240
ECCENTRICITY   = .0001991
INCLINATION    = 99.9701
RA_OF_ASC_NODE = 107.1427
ARG_OF_PERICENTER = 315.0243
MEAN_ANOMALY   = 45.0747

EPHEMERIS_TYPE = 0
CLASSIFICATION_TYPE = U
NORAD_CAT_ID   = 81123
ELEMENT_SET_NO = 999
REV_AT_EPOCH   = 61135
BSTAR          = .92419E-3
MEAN_MOTION_DOT = .938E-5
MEAN_MOTION_DDOT = 0

CCSDS_OMM_VERS = 2.0
CREATION_DATE  = 
ORIGINATOR     = 

OBJECT_NAME    = UNKNOWN
OBJECT_ID      = 
CENTER_NAME    = EARTH
REF_FRAME      = TEME
TIME_SYSTEM    = UTC
MEAN_ELEMENT_THEORY = SGP/SGP4

EPOCH          = 2026-01-22T15:29:06.654624
MEAN_MOTION    = 12.92994840
ECCENTRICITY   = .0024296
INCLINATION    = 90.2496
RA_OF_ASC_NODE = 4.9446
ARG_OF_PERICENTER = 283.8968
MEAN_ANOMALY   = 75.9448

EPHEMERIS_TYPE = 0
CLASSIFICATION_TYPE = U
NORAD_CAT_ID   = 81134
ELEMENT_SET_NO = 999
REV_AT_EPOCH   = 46789
BSTAR          = .92479E-3
MEAN_MOTION_DOT = .259E-5
MEAN_MOTION_DDOT = 0

CCSDS_OMM_VERS = 2.0
CREATION_DATE  = 
ORIGINATOR     = 

OBJECT_NAME    = UNKNOWN
OBJECT_ID      = 
CENTER_NAME    = EARTH
REF_FRAME      = TEME
TIME_SYSTEM    = UTC
MEAN_ELEMENT_THEORY = SGP/SGP4

EPOCH          = 2026-01-16T07:27:00.407232
MEAN_MOTION    = 13.75682856
ECCENTRICITY   = .0062179
INCLINATION    = 100.4168
RA_OF_ASC_NODE = 226.5127
ARG_OF_PERICENTER = 196.2360
MEAN_ANOMALY   = 163.6795

EPHEMERIS_TYPE = 0
CLASSIFICATION_TYPE = U
NORAD_CAT_ID   = 81161
ELEMENT_SET_NO = 999
REV_AT_EPOCH   = 56088
BSTAR          = .37583E-3
MEAN_MOTION_DOT = .316E-5
MEAN_MOTION_DDOT = 0

CCSDS_OMM_VERS = 2.0
CREATION_DATE  = 
ORIGINATOR     = 

OBJECT_NAME    = UNKNOWN
OBJECT_ID      = 
CENTER_NAME    = EARTH
REF_FRAME      = TEME
TIME_SYSTEM    = UTC
MEAN_ELEMENT_THEORY = SGP/SGP4

EPOCH          = 2026-01-20T14:08:41.050464
MEAN_MOTION    = 13.81825191
ECCENTRICITY   = .002257
INCLINATION    = 82.9283
RA_OF_ASC_NODE = 336.9586
ARG_OF_PERICENTER = 103.3117
MEAN_ANOMALY   = 257.0561

EPHEMERIS_TYPE = 0
CLASSIFICATION_TYPE = U
NORAD_CAT_ID   = 81219
ELEMENT_SET_NO = 999
REV_AT_EPOCH   = 61288
BSTAR          = .73863E-3
MEAN_MOTION_DOT = .808E-5
MEAN_MOTION_DDOT = 0

CCSDS_OMM_VERS = 2.0
CREATION_DATE  = 
ORIGINATOR     = 

OBJECT_NAME    = UNKNOWN
OBJECT_ID      = 
CENTER_NAME    = EARTH
REF_FRAME      = TEME
TIME_SYSTEM    = UTC
MEAN_ELEMENT_THEORY = SGP/SGP4

EPOCH          = 2026-01-21T17:26:19.841856
MEAN_MOTION    = 14.41394417
ECCENTRICITY   = .0064479
INCLINATION    = 70.5194
RA_OF_ASC_NODE = 186.9639
ARG_OF_PERICENTER = 302.0641
MEAN_ANOMALY   = 57.4240

EPHEMERIS_TYPE = 0
CLASSIFICATION_TYPE = U
NORAD_CAT_ID   = 81228
ELEMENT_SET_NO = 999
REV_AT_EPOCH   = 63185
BSTAR          = .46932E-2
MEAN_MOTION_DOT = .1558E-3
MEAN_MOTION_DDOT = 0

CCSDS_OMM_VERS = 2.0
CREATION_DATE  = 
ORIGINATOR     = 

OBJECT_NAME    = UNKNOWN
OBJECT_ID      = 
CENTER_NAME    = EARTH
REF_FRAME      = TEME
TIME_SYSTEM    = UTC
MEAN_ELEMENT_THEORY = SGP/SGP4

EPOCH          = 2026-01-22T10:20:25.617984
MEAN_MOTION    = 14.01840002
ECCENTRICITY   = .0071138
INCLINATION    = 100.3839
RA_OF_ASC_NODE = 95.0985
ARG_OF_PERICENTER = 322.3918
MEAN_ANOMALY   = 37.2280

EPHEMERIS_TYPE = 0
CLASSIFICATION_TYPE = U
NORAD_CAT_ID   = 81254
ELEMENT_SET_NO = 999
REV_AT_EPOCH   = 61859
BSTAR          = .38478E-2
MEAN_MOTION_DOT = .5931E-4
MEAN_MOTION_DDOT = 0

CCSDS_OMM_VERS = 2.0
CREATION_DATE  = 
ORIGINATOR     = 

OBJECT_NAME    = UNKNOWN
OBJECT_ID      = 
CENTER_NAME    = EARTH
REF_FRAME      = TEME
TIME_SYSTEM    = UTC
MEAN_ELEMENT_THEORY = SGP/SGP4

EPOCH          = 2026-01-21T22:32:38.283072
MEAN_MOTION    = 14.20053587
ECCENTRICITY   = .0206046
INCLINATION    = 98.1241
RA_OF_ASC_NODE = 83.1344
ARG_OF_PERICENTER = 267.1610
MEAN_ANOMALY   = 90.5971

EPHEMERIS_TYPE = 0
CLASSIFICATION_TYPE = U
NORAD_CAT_ID   = 81279
ELEMENT_SET_NO = 999
REV_AT_EPOCH   = 46830
BSTAR          = .92985E-3
MEAN_MOTION_DOT = .2407E-4
MEAN_MOTION_DDOT = 0

CCSDS_OMM_VERS = 2.0
CREATION_DATE  = 
ORIGINATOR     = 

OBJECT_NAME    = UNKNOWN
OBJECT_ID      = 
CENTER_NAME    = EARTH
REF_FRAME      = TEME
TIME_SYSTEM    = UTC
MEAN_ELEMENT_THEORY = SGP/SGP4

EPOCH          = 2026-01-16T07:25:49.553184
MEAN_MOTION    = 13.76726433
ECCENTRICITY   = .0091031
INCLINATION    = 66.7561
RA_OF_ASC_NODE = 213.3012
ARG_OF_PERICENTER = 209.6336
MEAN_ANOMALY   = 326.2117

EPHEMERIS_TYPE = 0
CLASSIFICATION_TYPE = U
NORAD_CAT_ID   = 81301
ELEMENT_SET_NO = 999
REV_AT_EPOCH   = 61111
BSTAR          = .26992E-3
MEAN_MOTION_DOT = .199E-5
MEAN_MOTION_DDOT = 0

CCSDS_OMM_VERS = 2.0
CREATION_DATE  = 
ORIGINATOR     = 

OBJECT_NAME    = UNKNOWN
OBJECT_ID      = 
CENTER_NAME    = EARTH
REF_FRAME      = TEME
TIME_SYSTEM    = UTC
MEAN_ELEMENT_THEORY = SGP/SGP4

EPOCH          = 2026-01-16T22:41:54.877920
MEAN_MOTION    = 14.56594439
ECCENTRICITY   = .0131514
INCLINATION    = 98.7270
RA_OF_ASC_NODE = 80.8740
ARG_OF_PERICENTER = 17.5362
MEAN_ANOMALY   = 155.9730

EPHEMERIS_TYPE = 0
CLASSIFICATION_TYPE = U
NORAD_CAT_ID   = 81311
ELEMENT_SET_NO = 999
REV_AT_EPOCH   = 64471
BSTAR          = .98845E-4
MEAN_MOTION_DOT = .437E-5
MEAN_MOTION_DDOT = 0

