UNKNOWN                 
1 81052U          26019.47075935  .00006902  00000+0  18055-2 0  9991
2 81052  65.7728 294.0545 0564190 289.6626  64.4412 13.83540829605539
UNKNOWN                 
1 81069U          26021.47192364  .00006205  00000+0  81448-2 0  9990
2 81069 100.3844 289.9982 0066851 308.1511  51.3615 13.60824833521331
UNKNOWN                 
1 81111U          26020.87584157  .00031963  00000+0  67318-2 0  9995
2 81111  62.8989 342.5023 3853866 358.7353   0.5519  7.56743422274900
UNKNOWN                 
1 81123U          26018.47140118  .00000938  00000+0  92419-3 0  9995
2 81123  99.9701 107.1427 0001991 315.0243  45.0747 13.81680240611358
UNKNOWN                 
1 81134U          26022.64521591  .00000259  00000+0  92479-3 0  9991
2 81134  90.2496   4.9446 0024296 283.8968  75.9448 12.92994840467892
UNKNOWN                 
1 81161U          26016.31042138  .00000316  00000+0  37583-3 0  9992
2 81161 100.4168 226.5127 0062179 196.2360 163.6795 13.75682856560881
UNKNOWN                 
1 81219U          26020.58936401  .00000808  00000+0  73863-3 0  9992
2 81219  82.9283 336.9586 0022570 103.3117 257.0561 13.81825191612887
UNKNOWN                 
1 81228U          26021.72661854  .00015580  00000+0  46932-2 0  9995
2 81228  70.5194 186.9639 0064479 302.0641  57.4240 14.41394417631850
UNKNOWN                 
1 81254U          26022.43085206  .00005931  00000+0  38478-2 0  9999
2 81254 100.3839  95.0985 0071138 322.3918  37.2280 14.01840002618591
UNKNOWN                 
1 81279U          26021.93933198  .00002407  00000+0  92985-3 0  9991
2 81279  98.1241  83.1344 0206046 267.1610  90.5971 14.20053587468305
UNKNOWN                 
1 81301U          26016.30960131  .00000199  00000+0  26992-3 0  9990
2 81301  66.7561 213.3012 0091031 209.6336 326.2117 13.76726433611115
UNKNOWN                 
1 81311U          26016.94577405  .00000437  00000+0  98845-4 0  9991
2 81311  98.7270  80.8740 0131514  17.5362 155.9730 14.56594439644717
